AOR-E (EGNOS/PRN 120)   
1 24307U 96053A   13056.28428263 -.00000131  00000-0  10000-3 0  5995
2 24307   0.0772  26.3146 0005885 301.5491 274.2335  1.00270985 60313
ARTEMIS (EGNOS/PRN 124) 
1 26863U 01029A   13057.87661183  .00000117  00000-0  00000+0 0  4468
2 26863  10.4230  51.1757 0003282 329.4927 113.1693  1.00273922 43696
MTSAT-1R (MSAS/PRN 129) 
1 28622U 05006A   13057.53842120 -.00000288  00000-0  10000-3 0  8253
2 28622   0.0662 299.9831 0001039  40.8862 149.5095  1.00272289 29294
CRE (WAAS/PRN 138)      
1 28868U 05036A   13058.48107086 -.00000082  00000-0  10000-3 0  1613
2 28868   0.0119  24.1814 0000908 275.5982 283.5697  1.00272302 27444
CRW (WAAS/PRN 135)      
1 28884U 05041A   13058.36711302  .00000072  00000-0  00000+0 0  4566
2 28884   0.0621 297.6982 0000913  49.6321 169.1710  1.00270799 27023
IOR-W (EGNOS/PRN 126)   
1 28899U 05044A   13057.94741530  .00000131  00000-0  00000+0 0  5987
2 28899   2.2692 346.3837 0002922  17.4433 159.2427  1.00274141 26794
MTSAT-2 (MSAS/PRN 137)  
1 28937U 06004A   13057.58537481 -.00000250  00000-0  00000+0 0  3447
2 28937   0.0131 172.5790 0004321 169.6004 170.1547  1.00270627 25774
AMR (WAAS/PRN 133)      
1 33278U 08039A   13058.49033110 -.00000146  00000-0  00000+0 0   757
2 33278   3.0069 345.7972 0002670 340.0344 270.5001  1.00271676 16623
QZS-1 (QZSS/PRN 183)    
1 37158U 10045A   13056.47366023 -.00000177  00000-0  10000-3 0  4861
2 37158  40.6517 182.2227 0749069 270.0018  10.2087  1.00264621  9027
GSAT-8 (GAGAN/PRN 127)  
1 37605U 11022A   13058.65048803  .00000077  00000-0  10000-3 0  4081
2 37605   0.0440 255.0051 0005665  33.1467 158.6925  1.00272676  6547
LUCH 5A (SDCM/PRN 140)  
1 37951U 11074B   13056.68724326 -.00000058  00000-0  00000+0 0  2896
2 37951   3.9393 261.0020 0002582  15.1697 293.9467  1.00270505  4454
GSAT-10 (GAGAN/PRN 128) 
1 38779U 12051B   13057.74040341 -.00000172  00000-0  10000-3 0   998
2 38779   0.0889 262.3457 0001367  66.7492 177.1473  1.00272826  1572
LUCH 5B (SDCM/PRN 125)  
1 38977U 12061A   13056.34931032 -.00000135  00000-0  00000+0 0   949
2 38977   0.3395 121.9653 0001145 260.2590 242.8142  1.00270023  1445
